CORVUS BC4              
1 43767U 18099K   26188.36542257  .00002569  00000+0  15050-3 0  9998
2 43767  97.4056 230.7555 0006530 295.3186  64.7368 15.12661802415450
M2 PATHFINDER           
1 45727U 20037E   26188.46211780  .00001835  00000+0  13446-3 0  9998
2 45727  97.8158  19.9225 0013267  85.9111 274.3631 15.04773632328543
NETSAT-4                
1 46504U 20068U   26187.95385057  .00013695  00000+0  29679-3 0  9990
2 46504  97.8607 197.7918 0003785 228.6166 131.4756 15.44556008318821
NETSAT-3                
1 46505U 20068V   26188.49377397  .00013134  00000+0  29586-3 0  9994
2 46505  97.8658 196.5669 0003106 248.2229 111.8687 15.43417698318817
NETSAT-1                
1 46506U 20068W   26188.47588522  .00008415  00000+0  24944-3 0  9996
2 46506  97.8754 190.6363 0002622 310.6729  49.4285 15.35123692318417
NETSAT-2                
1 46507U 20068X   26188.48287994  .00015625  00000+0  31213-3 0  9995
2 46507  97.8623 198.3349 0001431 255.2599 104.8491 15.46919793318870
GREENCUBE (IO-117)      
1 53109U 22080E   26188.26139696 -.00000003  00000+0  00000+0 0  9999
2 53109  70.1426 291.2647 0008968 285.4121  74.5548  6.42583238 93359
SITRO-AIS 5 (KATYS)     
1 57176U 23091L   26188.61025881  .00008092  00000+0  28124-3 0  9995
2 57176  97.5048 252.7090 0011469  38.5292 321.6765 15.29947404167465
SITRO-AIS 6 (CHIRKIN)   
1 57192U 23091AC  26188.57126629  .00006604  00000+0  25660-3 0  9999
2 57192  97.5055 251.6792 0011954  42.2911 317.9247 15.26340960167393
SITRO-AIS 8 (ANOKHIN)   
1 57193U 23091AD  26188.59103540  .00009877  00000+0  31456-3 0  9994
2 57193  97.5043 254.3625 0010307  34.6388 325.5524 15.32718952167570
SITRO-AIS 7 (FARTUSHNIY)
1 57194U 23091AE  26188.51306966  .00007086  00000+0  27777-3 0  9995
2 57194  97.5051 251.4352 0011906  43.5906 316.6271 15.26018341167372
SITRO-AIS 10 (BURDAEV)  
1 57199U 23091AK  26188.60038165  .00014144  00000+0  36305-3 0  9993
2 57199  97.5068 259.6405 0005581  12.1352 348.0027 15.39423147167908
SITRO-AIS 9 (SHCHUKIN)  
1 57201U 23091AM  26188.56837265  .00013340  00000+0  34829-3 0  9996
2 57201  97.5065 259.3213 0005870  12.2563 347.8824 15.38912472167881
SITRO-AIS 12 (SMIRENNIY)
1 57204U 23091AQ  26188.49010444  .00013723  00000+0  35488-3 0  9990
2 57204  97.5079 259.7212 0005387   6.2833 353.8479 15.39203506167894
SITRO-AIS 11 (SHEFFER)  
1 57208U 23091AU  26188.56282491  .00014409  00000+0  36713-3 0  9999
2 57208  97.5077 260.0552 0005284   5.6225 354.5079 15.39646470167921
SITRO-AIS 25            
1 59066U 24039R   26188.60932110  .00001478  00000+0  11760-3 0  9998
2 59066  95.3897 249.1265 0142357 256.3966 102.1371 14.93616730127776
SITRO-AIS 26            
1 59067U 24039S   26188.61349940  .00001358  00000+0  10880-3 0  9992
2 59067  95.3897 249.0228 0142718 256.9948 101.5311 14.93408427127760
SITRO-AIS 27            
1 59068U 24039T   26188.64499145  .00002425  00000+0  19026-3 0  9996
2 59068  95.3898 249.3256 0141732 255.3936 103.1538 14.93831467127797
SITRO-AIS 28            
1 59071U 24039U   26188.62196973  .00001591  00000+0  12573-3 0  9994
2 59071  95.3899 249.3583 0141710 255.3412 103.2068 14.93864439127794
GRBBETA                 
1 60237U 24128C   26188.46154758  .00002460  00000+0  17646-3 0  9998
2 60237  61.9890 145.1259 0037997 138.9442 221.4522 15.06772780109322
OOV-CUBE (TUBSAT-30)    
1 60240U 24128F   26187.41788603  .00002062  00000+0  16592-3 0  9995
2 60240  61.9939 158.5121 0042205 138.0070 222.4270 15.02848993109004
ROBUSTA-3A (MEDITERRAN*)
1 60243U 24128J   26188.37453157  .00004972  00000+0  29666-3 0  9995
2 60243  61.9856 136.8423 0038883 132.1641 228.2768 15.11910592109477
LASARSAT                
1 62391U 24247Q   26188.25250597  .00026614  00000+0  50876-3 0  9997
2 62391  44.9725 149.3564 0006511 108.5559 251.6039 15.47649920 86425
CROCUBE                 
1 62394U 24247T   26186.35536948  .00062671  00000+0  11046-2 0  9994
2 62394  44.9708 157.0633 0006223  99.0627 261.0968 15.49608608 86169
FORESAIL-1 PRIME        
1 66778U 25276DS  26188.15706049  .00003876  00000+0  18904-3 0  9991
2 66778  97.4189 261.0640 0003440  61.9701 298.1881 15.18890815 33434
KNACKSAT-2              
1 67683U 98067XZ  26187.43025761  .00050889  00000+0  57855-3 0  9994
2 67683  51.6265 197.5608 0008259 296.8985  63.1164 15.61755488 23280
